ONEWEB-0189             
1 48217U 21031H   26074.15766768  .00000128  00000+0  31013-3 0  9995
2 48217  87.8977 308.4605 0002029  80.9025 279.2335 13.14503334235876
ONEWEB-0196             
1 48218U 21031J   26074.13545967 -.00000144  00000+0 -42279-3 0  9996
2 48218  87.8978 308.4756 0001812  79.7742 280.3593 13.14503421235872
ONEWEB-0183             
1 48219U 21031K   26074.18621090  .00000229  00000+0  58311-3 0  9990
2 48219  87.8978 308.4656 0001506  76.2222 283.9075 13.14502204235970
ONEWEB-0185             
1 48220U 21031L   26074.13625323 -.00000176  00000+0 -51023-3 0  9996
2 48220  87.8980 308.4611 0001733  68.3706 291.7609 13.14502009235891
ONEWEB-0187             
1 48221U 21031M   26074.19241536  .00000085  00000+0  19521-3 0  9997
2 48221  87.8967 308.4818 0001825  74.5840 285.5492 13.14502671235915
ONEWEB-0192             
1 48222U 21031N   26074.16242227  .00000219  00000+0  55487-3 0  9993
2 48222  87.8963 308.4768 0001745  83.2032 276.9296 13.14503192235822
ONEWEB-0219             
1 48223U 21031P   26074.14180145 -.00000124  00000+0 -36968-3 0  9992
2 48223  87.8979 308.4659 0001748  74.1418 285.9905 13.14504057236020
ONEWEB-0202             
1 48224U 21031Q   26074.19888826 -.00000055  00000+0 -18183-3 0  9991
2 48224  87.8977 308.4639 0002356  88.1076 272.0324 13.14501104236019
ONEWEB-0204             
1 48225U 21031R   26074.15686380  .00000088  00000+0  20353-3 0  9995
2 48225  87.8975 308.4664 0001447  73.9882 286.1407 13.14504300235909
ONEWEB-0205             
1 48226U 21031S   26074.20840676 -.00000119  00000+0 -35463-3 0  9997
2 48226  87.8979 308.4482 0001742  75.9954 284.1369 13.14503329235929
ONEWEB-0206             
1 48227U 21031T   26074.18145116  .00000281  00000+0  72359-3 0  9995
2 48227  87.8985 308.4540 0001584  90.6478 269.4833 13.14503915235878
ONEWEB-0182             
1 48228U 21031U   26074.17669799  .00000268  00000+0  68956-3 0  9996
2 48228  87.8975 308.4672 0001484  75.5232 284.6062 13.14502628236080
ONEWEB-0186             
1 48229U 21031V   26074.18779684  .00000165  00000+0  40959-3 0  9992
2 48229  87.8979 308.4525 0001719  78.7114 281.4208 13.14503482236038
ONEWEB-0181             
1 48230U 21031W   26073.93724424  .00000247  00000+0  63108-3 0  9990
2 48230  87.8967 308.5434 0001854  79.8630 280.2709 13.14502573235854
ONEWEB-0188             
1 48231U 21031X   26074.20365307 -.00000118  00000+0 -35282-3 0  9994
2 48231  87.8969 308.4883 0001669  80.4259 279.7059 13.14502828235790
ONEWEB-0220             
1 48232U 21031Y   26074.16718344  .00000278  00000+0  71494-3 0  9993
2 48232  87.8980 308.4557 0001747  74.0994 286.0329 13.14502551236058
