[{"OBJECT_NAME":"ONEWEB-0189","OBJECT_ID":"2021-031H","EPOCH":"2026-03-15T03:47:02.487552","MEAN_MOTION":13.14503334,"ECCENTRICITY":0.00020292,"INCLINATION":87.8977,"RA_OF_ASC_NODE":308.4605,"ARG_OF_PERICENTER":80.9025,"MEAN_ANOMALY":279.2335,"EPHEMERIS_TYPE":0,"CLASSIFICATION_TYPE":"U","NORAD_CAT_ID":48217,"ELEMENT_SET_NO":999,"REV_AT_EPOCH":23587,"BSTAR":0.00031012957,"MEAN_MOTION_DOT":1.28e-6,"MEAN_MOTION_DDOT":0},{"OBJECT_NAME":"ONEWEB-0196","OBJECT_ID":"2021-031J","EPOCH":"2026-03-15T03:15:03.715488","MEAN_MOTION":13.14503421,"ECCENTRICITY":0.00018124,"INCLINATION":87.8978,"RA_OF_ASC_NODE":308.4756,"ARG_OF_PERICENTER":79.7742,"MEAN_ANOMALY":280.3593,"EPHEMERIS_TYPE":0,"CLASSIFICATION_TYPE":"U","NORAD_CAT_ID":48218,"ELEMENT_SET_NO":999,"REV_AT_EPOCH":23587,"BSTAR":-0.00042278583,"MEAN_MOTION_DOT":-1.44e-6,"MEAN_MOTION_DDOT":0},{"OBJECT_NAME":"ONEWEB-0183","OBJECT_ID":"2021-031K","EPOCH":"2026-03-15T04:28:08.621760","MEAN_MOTION":13.14502204,"ECCENTRICITY":0.00015067,"INCLINATION":87.8978,"RA_OF_ASC_NODE":308.4656,"ARG_OF_PERICENTER":76.2222,"MEAN_ANOMALY":283.9075,"EPHEMERIS_TYPE":0,"CLASSIFICATION_TYPE":"U","NORAD_CAT_ID":48219,"ELEMENT_SET_NO":999,"REV_AT_EPOCH":23597,"BSTAR":0.00058310975,"MEAN_MOTION_DOT":2.29e-6,"MEAN_MOTION_DDOT":0},{"OBJECT_NAME":"ONEWEB-0185","OBJECT_ID":"2021-031L","EPOCH":"2026-03-15T03:16:12.279072","MEAN_MOTION":13.14502009,"ECCENTRICITY":0.00017334,"INCLINATION":87.898,"RA_OF_ASC_NODE":308.4611,"ARG_OF_PERICENTER":68.3706,"MEAN_ANOMALY":291.7609,"EPHEMERIS_TYPE":0,"CLASSIFICATION_TYPE":"U","NORAD_CAT_ID":48220,"ELEMENT_SET_NO":999,"REV_AT_EPOCH":23589,"BSTAR":-0.0005102289,"MEAN_MOTION_DOT":-1.76e-6,"MEAN_MOTION_DDOT":0},{"OBJECT_NAME":"ONEWEB-0187","OBJECT_ID":"2021-031M","EPOCH":"2026-03-15T04:37:04.687104","MEAN_MOTION":13.14502671,"ECCENTRICITY":0.00018259,"INCLINATION":87.8967,"RA_OF_ASC_NODE":308.4818,"ARG_OF_PERICENTER":74.584,"MEAN_ANOMALY":285.5492,"EPHEMERIS_TYPE":0,"CLASSIFICATION_TYPE":"U","NORAD_CAT_ID":48221,"ELEMENT_SET_NO":999,"REV_AT_EPOCH":23591,"BSTAR":0.00019520995,"MEAN_MOTION_DOT":8.5e-7,"MEAN_MOTION_DDOT":0},{"OBJECT_NAME":"ONEWEB-0192","OBJECT_ID":"2021-031N","EPOCH":"2026-03-15T03:53:53.284128","MEAN_MOTION":13.14503192,"ECCENTRICITY":0.00017456,"INCLINATION":87.8963,"RA_OF_ASC_NODE":308.4768,"ARG_OF_PERICENTER":83.2032,"MEAN_ANOMALY":276.9296,"EPHEMERIS_TYPE":0,"CLASSIFICATION_TYPE":"U","NORAD_CAT_ID":48222,"ELEMENT_SET_NO":999,"REV_AT_EPOCH":23582,"BSTAR":0.00055487178,"MEAN_MOTION_DOT":2.19e-6,"MEAN_MOTION_DDOT":0},{"OBJECT_NAME":"ONEWEB-0219","OBJECT_ID":"2021-031P","EPOCH":"2026-03-15T03:24:11.645280","MEAN_MOTION":13.14504057,"ECCENTRICITY":0.00017486,"INCLINATION":87.8979,"RA_OF_ASC_NODE":308.4659,"ARG_OF_PERICENTER":74.1418,"MEAN_ANOMALY":285.9905,"EPHEMERIS_TYPE":0,"CLASSIFICATION_TYPE":"U","NORAD_CAT_ID":48223,"ELEMENT_SET_NO":999,"REV_AT_EPOCH":23602,"BSTAR":-0.00036967555,"MEAN_MOTION_DOT":-1.24e-6,"MEAN_MOTION_DDOT":0},{"OBJECT_NAME":"ONEWEB-0202","OBJECT_ID":"2021-031Q","EPOCH":"2026-03-15T04:46:23.945664","MEAN_MOTION":13.14501104,"ECCENTRICITY":0.00023567,"INCLINATION":87.8977,"RA_OF_ASC_NODE":308.4639,"ARG_OF_PERICENTER":88.1076,"MEAN_ANOMALY":272.0324,"EPHEMERIS_TYPE":0,"CLASSIFICATION_TYPE":"U","NORAD_CAT_ID":48224,"ELEMENT_SET_NO":999,"REV_AT_EPOCH":23601,"BSTAR":-0.00018182535,"MEAN_MOTION_DOT":-5.5e-7,"MEAN_MOTION_DDOT":0},{"OBJECT_NAME":"ONEWEB-0204","OBJECT_ID":"2021-031R","EPOCH":"2026-03-15T03:45:53.032320","MEAN_MOTION":13.145043,"ECCENTRICITY":0.0001447,"INCLINATION":87.8975,"RA_OF_ASC_NODE":308.4664,"ARG_OF_PERICENTER":73.9882,"MEAN_ANOMALY":286.1407,"EPHEMERIS_TYPE":0,"CLASSIFICATION_TYPE":"U","NORAD_CAT_ID":48225,"ELEMENT_SET_NO":999,"REV_AT_EPOCH":23590,"BSTAR":0.00020352545,"MEAN_MOTION_DOT":8.8e-7,"MEAN_MOTION_DDOT":0},{"OBJECT_NAME":"ONEWEB-0205","OBJECT_ID":"2021-031S","EPOCH":"2026-03-15T05:00:06.344064","MEAN_MOTION":13.14503329,"ECCENTRICITY":0.00017426,"INCLINATION":87.8979,"RA_OF_ASC_NODE":308.4482,"ARG_OF_PERICENTER":75.9954,"MEAN_ANOMALY":284.1369,"EPHEMERIS_TYPE":0,"CLASSIFICATION_TYPE":"U","NORAD_CAT_ID":48226,"ELEMENT_SET_NO":999,"REV_AT_EPOCH":23592,"BSTAR":-0.00035462716,"MEAN_MOTION_DOT":-1.19e-6,"MEAN_MOTION_DDOT":0},{"OBJECT_NAME":"ONEWEB-0206","OBJECT_ID":"2021-031T","EPOCH":"2026-03-15T04:21:17.380224","MEAN_MOTION":13.14503915,"ECCENTRICITY":0.00015848,"INCLINATION":87.8985,"RA_OF_ASC_NODE":308.454,"ARG_OF_PERICENTER":90.6478,"MEAN_ANOMALY":269.4833,"EPHEMERIS_TYPE":0,"CLASSIFICATION_TYPE":"U","NORAD_CAT_ID":48227,"ELEMENT_SET_NO":999,"REV_AT_EPOCH":23587,"BSTAR":0.00072358834,"MEAN_MOTION_DOT":2.81e-6,"MEAN_MOTION_DDOT":0},{"OBJECT_NAME":"ONEWEB-0182","OBJECT_ID":"2021-031U","EPOCH":"2026-03-15T04:14:26.706336","MEAN_MOTION":13.14502628,"ECCENTRICITY":0.00014844,"INCLINATION":87.8975,"RA_OF_ASC_NODE":308.4672,"ARG_OF_PERICENTER":75.5232,"MEAN_ANOMALY":284.6062,"EPHEMERIS_TYPE":0,"CLASSIFICATION_TYPE":"U","NORAD_CAT_ID":48228,"ELEMENT_SET_NO":999,"REV_AT_EPOCH":23608,"BSTAR":0.0006895587,"MEAN_MOTION_DOT":2.68e-6,"MEAN_MOTION_DDOT":0},{"OBJECT_NAME":"ONEWEB-0186","OBJECT_ID":"2021-031V","EPOCH":"2026-03-15T04:30:25.646976","MEAN_MOTION":13.14503482,"ECCENTRICITY":0.00017194,"INCLINATION":87.8979,"RA_OF_ASC_NODE":308.4525,"ARG_OF_PERICENTER":78.7114,"MEAN_ANOMALY":281.4208,"EPHEMERIS_TYPE":0,"CLASSIFICATION_TYPE":"U","NORAD_CAT_ID":48229,"ELEMENT_SET_NO":999,"REV_AT_EPOCH":23603,"BSTAR":0.00040959337,"MEAN_MOTION_DOT":1.65e-6,"MEAN_MOTION_DDOT":0},{"OBJECT_NAME":"ONEWEB-0181","OBJECT_ID":"2021-031W","EPOCH":"2026-03-14T22:29:37.902336","MEAN_MOTION":13.14502573,"ECCENTRICITY":0.00018544,"INCLINATION":87.8967,"RA_OF_ASC_NODE":308.5434,"ARG_OF_PERICENTER":79.863,"MEAN_ANOMALY":280.2709,"EPHEMERIS_TYPE":0,"CLASSIFICATION_TYPE":"U","NORAD_CAT_ID":48230,"ELEMENT_SET_NO":999,"REV_AT_EPOCH":23585,"BSTAR":0.00063107768,"MEAN_MOTION_DOT":2.47e-6,"MEAN_MOTION_DDOT":0},{"OBJECT_NAME":"ONEWEB-0188","OBJECT_ID":"2021-031X","EPOCH":"2026-03-15T04:53:15.625248","MEAN_MOTION":13.14502828,"ECCENTRICITY":0.00016692,"INCLINATION":87.8969,"RA_OF_ASC_NODE":308.4883,"ARG_OF_PERICENTER":80.4259,"MEAN_ANOMALY":279.7059,"EPHEMERIS_TYPE":0,"CLASSIFICATION_TYPE":"U","NORAD_CAT_ID":48231,"ELEMENT_SET_NO":999,"REV_AT_EPOCH":23579,"BSTAR":-0.00035281844,"MEAN_MOTION_DOT":-1.18e-6,"MEAN_MOTION_DDOT":0},{"OBJECT_NAME":"ONEWEB-0220","OBJECT_ID":"2021-031Y","EPOCH":"2026-03-15T04:00:44.649216","MEAN_MOTION":13.14502551,"ECCENTRICITY":0.00017479,"INCLINATION":87.898,"RA_OF_ASC_NODE":308.4557,"ARG_OF_PERICENTER":74.0994,"MEAN_ANOMALY":286.0329,"EPHEMERIS_TYPE":0,"CLASSIFICATION_TYPE":"U","NORAD_CAT_ID":48232,"ELEMENT_SET_NO":999,"REV_AT_EPOCH":23605,"BSTAR":0.00071494117,"MEAN_MOTION_DOT":2.78e-6,"MEAN_MOTION_DDOT":0}]
